<?xml version="1.0" encoding="UTF-8" standalone="no" ?>
<gpx xmlns="http://www.topografix.com/GPX/1/1" creator="http://nakarte.me" xmlns:xsi="http://www.w3.org/2001/XMLSchema-instance" xsi:schemaLocation="http://www.topografix.com/GPX/1/1 http://www.topografix.com/GPX/1/1/gpx.xsd" version="1.1">
	<metadata>
		<time>2026-08-14T01:04:01.066Z</time>
	</metadata>
	<trk>
		<name>Фото Медербек 7.08 14:21</name>
		<trkseg>
			<trkpt lat="39.500401" lon="73.611579"><time>1970-01-01T00:00:01.000Z</time></trkpt>
			<trkpt lat="39.552071" lon="73.613295"><time>1970-01-01T00:00:01.000Z</time></trkpt>
			<trkpt lat="39.539003" lon="73.559479"><time>1970-01-01T00:00:01.000Z</time></trkpt>
		</trkseg>
	</trk>
</gpx>