<?xml version="1.0" encoding="UTF-8"?>
<gpx version="1.1" creator="alp-finder" xmlns="http://www.topografix.com/GPX/1/1">
  <wpt lat="39.513125" lon="73.606729"><name>ABC</name></wpt>
  <wpt lat="39.484587" lon="73.594884"><name>Camp1</name></wpt>
  <wpt lat="39.476132" lon="73.592438"><name>Camp2</name></wpt>
  <wpt lat="39.467957" lon="73.590464"><name>Camp3</name></wpt>
  <wpt lat="39.474308" lon="73.643636"><name>Descent</name></wpt>
  <wpt lat="39.606831" lon="73.655696"><name>Start</name></wpt>
  <wpt lat="39.490123" lon="73.612351"><name>ледник с извивом</name></wpt>
  <wpt lat="39.52497" lon="73.643422"><name>ручеек под черным чклоном</name></wpt>
  <wpt lat="39.517224" lon="73.610377"><name>палатка Husky (примерно)</name></wpt>
  <wpt lat="39.541042" lon="73.627479"><name>Стоянка спасателей 08.08</name></wpt>
  <wpt lat="39.483535" lon="73.593962"><name>Real C1</name></wpt>
  <wpt lat="39.48096" lon="73.592631"><name>39.48096587° 73.592623517° веревки </name></wpt>
  <trk><name>Плановый трек группы</name>
    <trkseg>
      <trkpt lat="39.467978" lon="73.59055"/>
      <trkpt lat="39.467013" lon="73.592095"/>
      <trkpt lat="39.466176" lon="73.593104"/>
      <trkpt lat="39.465425" lon="73.593683"/>
      <trkpt lat="39.464803" lon="73.594327"/>
      <trkpt lat="39.461927" lon="73.596987"/>
      <trkpt lat="39.461434" lon="73.598296"/>
      <trkpt lat="39.460683" lon="73.59879"/>
      <trkpt lat="39.459782" lon="73.600034"/>
      <trkpt lat="39.460146" lon="73.60527"/>
      <trkpt lat="39.460382" lon="73.607738"/>
      <trkpt lat="39.460404" lon="73.609347"/>
      <trkpt lat="39.460683" lon="73.61072"/>
      <trkpt lat="39.461284" lon="73.61145"/>
      <trkpt lat="39.46152" lon="73.612072"/>
      <trkpt lat="39.461842" lon="73.61336"/>
      <trkpt lat="39.462292" lon="73.613038"/>
      <trkpt lat="39.463751" lon="73.613424"/>
      <trkpt lat="39.464266" lon="73.613488"/>
      <trkpt lat="39.465961" lon="73.615141"/>
      <trkpt lat="39.466991" lon="73.616514"/>
      <trkpt lat="39.467699" lon="73.617329"/>
      <trkpt lat="39.468493" lon="73.618531"/>
      <trkpt lat="39.468665" lon="73.619883"/>
      <trkpt lat="39.468451" lon="73.62353"/>
      <trkpt lat="39.468451" lon="73.624775"/>
      <trkpt lat="39.469244" lon="73.626835"/>
      <trkpt lat="39.469802" lon="73.628509"/>
      <trkpt lat="39.470446" lon="73.629968"/>
      <trkpt lat="39.470789" lon="73.631234"/>
      <trkpt lat="39.471476" lon="73.6325"/>
      <trkpt lat="39.471862" lon="73.633315"/>
      <trkpt lat="39.472227" lon="73.634281"/>
      <trkpt lat="39.473236" lon="73.635439"/>
      <trkpt lat="39.473965" lon="73.637607"/>
      <trkpt lat="39.474201" lon="73.640182"/>
      <trkpt lat="39.474223" lon="73.641255"/>
      <trkpt lat="39.47433" lon="73.642521"/>
      <trkpt lat="39.474351" lon="73.643443"/>
      <trkpt lat="39.474308" lon="73.643636"/>
      <trkpt lat="39.475102" lon="73.643787"/>
      <trkpt lat="39.475617" lon="73.644001"/>
      <trkpt lat="39.476261" lon="73.644087"/>
      <trkpt lat="39.477956" lon="73.64398"/>
      <trkpt lat="39.478707" lon="73.644023"/>
      <trkpt lat="39.47978" lon="73.643701"/>
      <trkpt lat="39.480574" lon="73.643808"/>
      <trkpt lat="39.481261" lon="73.643744"/>
      <trkpt lat="39.481604" lon="73.64325"/>
      <trkpt lat="39.481862" lon="73.643078"/>
      <trkpt lat="39.482098" lon="73.643078"/>
      <trkpt lat="39.482398" lon="73.643164"/>
      <trkpt lat="39.482698" lon="73.643379"/>
      <trkpt lat="39.483149" lon="73.643765"/>
      <trkpt lat="39.483342" lon="73.644065"/>
      <trkpt lat="39.484136" lon="73.644194"/>
      <trkpt lat="39.484308" lon="73.644044"/>
      <trkpt lat="39.485445" lon="73.643679"/>
      <trkpt lat="39.485724" lon="73.643765"/>
      <trkpt lat="39.485896" lon="73.644023"/>
      <trkpt lat="39.485917" lon="73.644216"/>
      <trkpt lat="39.486282" lon="73.644538"/>
      <trkpt lat="39.486411" lon="73.644924"/>
      <trkpt lat="39.487076" lon="73.645482"/>
      <trkpt lat="39.487483" lon="73.645203"/>
      <trkpt lat="39.487655" lon="73.644945"/>
      <trkpt lat="39.488084" lon="73.644666"/>
      <trkpt lat="39.488192" lon="73.644151"/>
      <trkpt lat="39.488277" lon="73.644001"/>
      <trkpt lat="39.488986" lon="73.64428"/>
      <trkpt lat="39.489436" lon="73.64458"/>
      <trkpt lat="39.489715" lon="73.644902"/>
      <trkpt lat="39.490058" lon="73.644859"/>
      <trkpt lat="39.490294" lon="73.644752"/>
      <trkpt lat="39.490702" lon="73.644752"/>
      <trkpt lat="39.491603" lon="73.645031"/>
      <trkpt lat="39.491839" lon="73.645246"/>
      <trkpt lat="39.492161" lon="73.645932"/>
      <trkpt lat="39.492333" lon="73.646061"/>
      <trkpt lat="39.49214" lon="73.646383"/>
      <trkpt lat="39.492526" lon="73.646576"/>
      <trkpt lat="39.492826" lon="73.646791"/>
      <trkpt lat="39.493127" lon="73.647091"/>
      <trkpt lat="39.493599" lon="73.647177"/>
      <trkpt lat="39.493663" lon="73.64752"/>
      <trkpt lat="39.493642" lon="73.647778"/>
      <trkpt lat="39.493899" lon="73.647992"/>
      <trkpt lat="39.4942" lon="73.648078"/>
      <trkpt lat="39.4945" lon="73.647949"/>
      <trkpt lat="39.495294" lon="73.64737"/>
      <trkpt lat="39.49553" lon="73.646812"/>
      <trkpt lat="39.495337" lon="73.645889"/>
      <trkpt lat="39.495079" lon="73.645546"/>
      <trkpt lat="39.494972" lon="73.645267"/>
      <trkpt lat="39.495208" lon="73.644795"/>
      <trkpt lat="39.495444" lon="73.644495"/>
      <trkpt lat="39.495444" lon="73.64413"/>
      <trkpt lat="39.495573" lon="73.644023"/>
      <trkpt lat="39.495809" lon="73.643465"/>
      <trkpt lat="39.496024" lon="73.643143"/>
      <trkpt lat="39.497011" lon="73.642199"/>
      <trkpt lat="39.497676" lon="73.64134"/>
      <trkpt lat="39.498298" lon="73.639946"/>
      <trkpt lat="39.498684" lon="73.638379"/>
      <trkpt lat="39.498877" lon="73.636341"/>
      <trkpt lat="39.49877" lon="73.635611"/>
      <trkpt lat="39.49892" lon="73.63441"/>
      <trkpt lat="39.499135" lon="73.633809"/>
      <trkpt lat="39.49892" lon="73.633401"/>
      <trkpt lat="39.498255" lon="73.63295"/>
      <trkpt lat="39.498212" lon="73.631963"/>
      <trkpt lat="39.498448" lon="73.631534"/>
      <trkpt lat="39.498684" lon="73.631255"/>
      <trkpt lat="39.499478" lon="73.630526"/>
      <trkpt lat="39.500143" lon="73.630461"/>
      <trkpt lat="39.500422" lon="73.630268"/>
      <trkpt lat="39.500594" lon="73.629346"/>
      <trkpt lat="39.501066" lon="73.628358"/>
      <trkpt lat="39.501796" lon="73.626964"/>
      <trkpt lat="39.502182" lon="73.626513"/>
      <trkpt lat="39.502439" lon="73.625977"/>
      <trkpt lat="39.502933" lon="73.625891"/>
      <trkpt lat="39.503663" lon="73.626213"/>
      <trkpt lat="39.503877" lon="73.626105"/>
      <trkpt lat="39.503877" lon="73.625548"/>
      <trkpt lat="39.503684" lon="73.624882"/>
      <trkpt lat="39.503663" lon="73.624324"/>
      <trkpt lat="39.503791" lon="73.623638"/>
      <trkpt lat="39.504006" lon="73.623273"/>
      <trkpt lat="39.504371" lon="73.62293"/>
      <trkpt lat="39.504886" lon="73.622779"/>
      <trkpt lat="39.505379" lon="73.622329"/>
      <trkpt lat="39.50583" lon="73.621492"/>
      <trkpt lat="39.506152" lon="73.621041"/>
      <trkpt lat="39.506216" lon="73.620548"/>
      <trkpt lat="39.506195" lon="73.619604"/>
      <trkpt lat="39.506237" lon="73.619389"/>
      <trkpt lat="39.506581" lon="73.619175"/>
      <trkpt lat="39.506752" lon="73.618853"/>
      <trkpt lat="39.506817" lon="73.618552"/>
      <trkpt lat="39.507439" lon="73.617823"/>
      <trkpt lat="39.507675" lon="73.617351"/>
      <trkpt lat="39.507997" lon="73.616986"/>
      <trkpt lat="39.508405" lon="73.616814"/>
      <trkpt lat="39.508405" lon="73.615827"/>
      <trkpt lat="39.508705" lon="73.615098"/>
      <trkpt lat="39.50907" lon="73.614926"/>
      <trkpt lat="39.50937" lon="73.614668"/>
      <trkpt lat="39.509456" lon="73.614175"/>
      <trkpt lat="39.509284" lon="73.61336"/>
      <trkpt lat="39.509413" lon="73.612823"/>
      <trkpt lat="39.509649" lon="73.612415"/>
      <trkpt lat="39.509928" lon="73.612222"/>
      <trkpt lat="39.510078" lon="73.611772"/>
      <trkpt lat="39.510164" lon="73.611064"/>
      <trkpt lat="39.510508" lon="73.610699"/>
      <trkpt lat="39.511194" lon="73.610119"/>
      <trkpt lat="39.511752" lon="73.609411"/>
      <trkpt lat="39.511924" lon="73.609047"/>
      <trkpt lat="39.512053" lon="73.608424"/>
      <trkpt lat="39.511838" lon="73.608017"/>
      <trkpt lat="39.512525" lon="73.607823"/>
      <trkpt lat="39.512782" lon="73.607158"/>
      <trkpt lat="39.513104" lon="73.606772"/>
    </trkseg>
    <trkseg>
      <trkpt lat="39.518747" lon="73.609068"/>
      <trkpt lat="39.518597" lon="73.607888"/>
      <trkpt lat="39.518468" lon="73.605914"/>
      <trkpt lat="39.518211" lon="73.60512"/>
      <trkpt lat="39.518146" lon="73.604326"/>
      <trkpt lat="39.518232" lon="73.603489"/>
      <trkpt lat="39.517632" lon="73.601794"/>
      <trkpt lat="39.517481" lon="73.601129"/>
      <trkpt lat="39.517288" lon="73.599755"/>
      <trkpt lat="39.516902" lon="73.599262"/>
      <trkpt lat="39.51688" lon="73.598876"/>
      <trkpt lat="39.516773" lon="73.598404"/>
      <trkpt lat="39.516945" lon="73.59806"/>
      <trkpt lat="39.516816" lon="73.59761"/>
      <trkpt lat="39.516838" lon="73.597073"/>
      <trkpt lat="39.517074" lon="73.59673"/>
      <trkpt lat="39.517202" lon="73.596408"/>
      <trkpt lat="39.517353" lon="73.595507"/>
      <trkpt lat="39.517653" lon="73.595163"/>
      <trkpt lat="39.517975" lon="73.594477"/>
      <trkpt lat="39.518018" lon="73.593962"/>
      <trkpt lat="39.518318" lon="73.593297"/>
      <trkpt lat="39.518468" lon="73.59261"/>
      <trkpt lat="39.518447" lon="73.591752"/>
      <trkpt lat="39.518511" lon="73.591237"/>
      <trkpt lat="39.518726" lon="73.59085"/>
      <trkpt lat="39.519069" lon="73.589649"/>
    </trkseg>
    <trkseg>
      <trkpt lat="39.606874" lon="73.655717"/>
      <trkpt lat="39.606466" lon="73.655631"/>
      <trkpt lat="39.60608" lon="73.655202"/>
      <trkpt lat="39.605801" lon="73.654666"/>
      <trkpt lat="39.604835" lon="73.653121"/>
      <trkpt lat="39.603612" lon="73.651383"/>
      <trkpt lat="39.60181" lon="73.651361"/>
      <trkpt lat="39.600244" lon="73.650245"/>
      <trkpt lat="39.599063" lon="73.649108"/>
      <trkpt lat="39.597583" lon="73.647778"/>
      <trkpt lat="39.596961" lon="73.647542"/>
      <trkpt lat="39.595544" lon="73.645589"/>
      <trkpt lat="39.595158" lon="73.645117"/>
      <trkpt lat="39.593892" lon="73.644194"/>
      <trkpt lat="39.592819" lon="73.642993"/>
      <trkpt lat="39.59224" lon="73.6431"/>
      <trkpt lat="39.591467" lon="73.642928"/>
      <trkpt lat="39.591081" lon="73.642392"/>
      <trkpt lat="39.59048" lon="73.641255"/>
      <trkpt lat="39.590094" lon="73.641898"/>
      <trkpt lat="39.590073" lon="73.642671"/>
      <trkpt lat="39.589686" lon="73.642971"/>
      <trkpt lat="39.589" lon="73.642563"/>
      <trkpt lat="39.587734" lon="73.642199"/>
      <trkpt lat="39.586639" lon="73.642156"/>
      <trkpt lat="39.586124" lon="73.643121"/>
      <trkpt lat="39.585588" lon="73.643314"/>
      <trkpt lat="39.585052" lon="73.643207"/>
      <trkpt lat="39.584408" lon="73.643164"/>
      <trkpt lat="39.583721" lon="73.643314"/>
      <trkpt lat="39.583163" lon="73.64355"/>
      <trkpt lat="39.582262" lon="73.643658"/>
      <trkpt lat="39.581296" lon="73.643658"/>
      <trkpt lat="39.578829" lon="73.642842"/>
      <trkpt lat="39.577434" lon="73.642606"/>
      <trkpt lat="39.576576" lon="73.642692"/>
      <trkpt lat="39.575417" lon="73.642692"/>
      <trkpt lat="39.574151" lon="73.642435"/>
      <trkpt lat="39.573228" lon="73.642413"/>
      <trkpt lat="39.572155" lon="73.642327"/>
      <trkpt lat="39.571383" lon="73.642327"/>
      <trkpt lat="39.570889" lon="73.642177"/>
      <trkpt lat="39.570181" lon="73.642177"/>
      <trkpt lat="39.569559" lon="73.642091"/>
      <trkpt lat="39.568679" lon="73.641791"/>
      <trkpt lat="39.567907" lon="73.641855"/>
      <trkpt lat="39.567242" lon="73.641748"/>
      <trkpt lat="39.566598" lon="73.641877"/>
      <trkpt lat="39.566212" lon="73.641834"/>
      <trkpt lat="39.565589" lon="73.641877"/>
      <trkpt lat="39.565203" lon="73.641684"/>
      <trkpt lat="39.564817" lon="73.641748"/>
      <trkpt lat="39.564366" lon="73.641555"/>
      <trkpt lat="39.563916" lon="73.641512"/>
      <trkpt lat="39.563465" lon="73.641255"/>
      <trkpt lat="39.562607" lon="73.641362"/>
      <trkpt lat="39.561684" lon="73.641147"/>
      <trkpt lat="39.561255" lon="73.640976"/>
      <trkpt lat="39.560611" lon="73.641104"/>
      <trkpt lat="39.560332" lon="73.64089"/>
      <trkpt lat="39.559367" lon="73.640568"/>
      <trkpt lat="39.558852" lon="73.640267"/>
      <trkpt lat="39.558444" lon="73.639946"/>
      <trkpt lat="39.558294" lon="73.639645"/>
      <trkpt lat="39.557779" lon="73.639431"/>
      <trkpt lat="39.557307" lon="73.639323"/>
      <trkpt lat="39.556792" lon="73.638701"/>
      <trkpt lat="39.555719" lon="73.637585"/>
      <trkpt lat="39.554667" lon="73.636255"/>
      <trkpt lat="39.553509" lon="73.635118"/>
      <trkpt lat="39.552371" lon="73.634302"/>
      <trkpt lat="39.551728" lon="73.63368"/>
      <trkpt lat="39.550698" lon="73.632972"/>
      <trkpt lat="39.549303" lon="73.632114"/>
      <trkpt lat="39.548209" lon="73.631191"/>
      <trkpt lat="39.547157" lon="73.63089"/>
      <trkpt lat="39.545913" lon="73.630375"/>
      <trkpt lat="39.545054" lon="73.629453"/>
      <trkpt lat="39.54411" lon="73.628895"/>
      <trkpt lat="39.542866" lon="73.628552"/>
      <trkpt lat="39.542029" lon="73.628702"/>
      <trkpt lat="39.541492" lon="73.628423"/>
      <trkpt lat="39.540591" lon="73.628509"/>
      <trkpt lat="39.539347" lon="73.627736"/>
      <trkpt lat="39.538488" lon="73.627286"/>
      <trkpt lat="39.537373" lon="73.627157"/>
      <trkpt lat="39.536536" lon="73.626577"/>
      <trkpt lat="39.535162" lon="73.626277"/>
      <trkpt lat="39.533832" lon="73.625912"/>
      <trkpt lat="39.531708" lon="73.622887"/>
      <trkpt lat="39.528682" lon="73.619239"/>
      <trkpt lat="39.527395" lon="73.617479"/>
      <trkpt lat="39.525034" lon="73.616471"/>
      <trkpt lat="39.522524" lon="73.615033"/>
      <trkpt lat="39.521515" lon="73.613917"/>
      <trkpt lat="39.519069" lon="73.611664"/>
      <trkpt lat="39.5157" lon="73.608725"/>
      <trkpt lat="39.514885" lon="73.608403"/>
      <trkpt lat="39.51319" lon="73.606729"/>
      <trkpt lat="39.510765" lon="73.605764"/>
      <trkpt lat="39.506624" lon="73.60424"/>
      <trkpt lat="39.504306" lon="73.602159"/>
      <trkpt lat="39.502718" lon="73.600807"/>
      <trkpt lat="39.500487" lon="73.594799"/>
      <trkpt lat="39.499071" lon="73.594627"/>
      <trkpt lat="39.498641" lon="73.595743"/>
      <trkpt lat="39.497719" lon="73.598597"/>
      <trkpt lat="39.496067" lon="73.599133"/>
      <trkpt lat="39.495079" lon="73.598854"/>
      <trkpt lat="39.493663" lon="73.599712"/>
      <trkpt lat="39.49156" lon="73.600163"/>
      <trkpt lat="39.490852" lon="73.599434"/>
      <trkpt lat="39.490252" lon="73.598554"/>
      <trkpt lat="39.488749" lon="73.597567"/>
      <trkpt lat="39.486797" lon="73.596429"/>
      <trkpt lat="39.48581" lon="73.596043"/>
      <trkpt lat="39.485252" lon="73.595657"/>
      <trkpt lat="39.484887" lon="73.595099"/>
      <trkpt lat="39.483213" lon="73.593919"/>
      <trkpt lat="39.482806" lon="73.593361"/>
      <trkpt lat="39.482334" lon="73.593082"/>
      <trkpt lat="39.481454" lon="73.593104"/>
      <trkpt lat="39.480596" lon="73.592524"/>
      <trkpt lat="39.480209" lon="73.59261"/>
      <trkpt lat="39.479072" lon="73.592546"/>
      <trkpt lat="39.478793" lon="73.592438"/>
      <trkpt lat="39.478385" lon="73.592438"/>
      <trkpt lat="39.477742" lon="73.592267"/>
      <trkpt lat="39.477527" lon="73.59231"/>
      <trkpt lat="39.477119" lon="73.592245"/>
      <trkpt lat="39.476948" lon="73.592288"/>
      <trkpt lat="39.476755" lon="73.592224"/>
      <trkpt lat="39.47639" lon="73.592288"/>
      <trkpt lat="39.476132" lon="73.59246"/>
      <trkpt lat="39.475768" lon="73.592417"/>
      <trkpt lat="39.475446" lon="73.592181"/>
      <trkpt lat="39.474952" lon="73.591945"/>
      <trkpt lat="39.474437" lon="73.591945"/>
      <trkpt lat="39.473922" lon="73.592181"/>
      <trkpt lat="39.473085" lon="73.592074"/>
      <trkpt lat="39.472377" lon="73.591945"/>
      <trkpt lat="39.471648" lon="73.59173"/>
      <trkpt lat="39.471261" lon="73.591537"/>
      <trkpt lat="39.470661" lon="73.591473"/>
      <trkpt lat="39.470189" lon="73.591065"/>
      <trkpt lat="39.469287" lon="73.590872"/>
      <trkpt lat="39.468987" lon="73.59085"/>
      <trkpt lat="39.468708" lon="73.590743"/>
      <trkpt lat="39.468515" lon="73.590786"/>
      <trkpt lat="39.468343" lon="73.590765"/>
      <trkpt lat="39.46815" lon="73.590571"/>
      <trkpt lat="39.468064" lon="73.59055"/>
      <trkpt lat="39.468" lon="73.590571"/>
      <trkpt lat="39.468107" lon="73.58982"/>
      <trkpt lat="39.468064" lon="73.589413"/>
      <trkpt lat="39.467678" lon="73.587224"/>
      <trkpt lat="39.467421" lon="73.586001"/>
      <trkpt lat="39.466991" lon="73.5851"/>
      <trkpt lat="39.466755" lon="73.583941"/>
      <trkpt lat="39.466305" lon="73.582697"/>
      <trkpt lat="39.465404" lon="73.580508"/>
      <trkpt lat="39.46506" lon="73.578791"/>
      <trkpt lat="39.463472" lon="73.578019"/>
      <trkpt lat="39.462399" lon="73.57716"/>
      <trkpt lat="39.461734" lon="73.576431"/>
      <trkpt lat="39.461305" lon="73.575701"/>
      <trkpt lat="39.460854" lon="73.572847"/>
      <trkpt lat="39.456906" lon="73.57083"/>
      <trkpt lat="39.456327" lon="73.568985"/>
      <trkpt lat="39.455104" lon="73.566453"/>
    </trkseg>
  </trk>
</gpx>
