<?xml version="1.0" encoding="UTF-8"?>
<kml xmlns="http://www.opengis.net/kml/2.2"><Document>
<name>Pamir search vectors 39.4827N 73.5868E (FIX 2026-08-14)</name>
<description>CORRECTED. The previous file drew the axis and the corridor as a straight line on bearing 297 from the rucksack. Steepest descent over Copernicus GLO-30 turns north-northeast below the objects, so that box missed most of the path. This file routes the line over the DEM and buffers the routed polyline. Remote-sensing derived. Not a confirmed find.</description>
<Style id="obj"><IconStyle><color>ff00ff00</color><scale>1.2</scale></IconStyle></Style>
<Style id="rej"><IconStyle><color>ff0000ff</color><scale>1.0</scale></IconStyle></Style>
<Style id="axis"><LineStyle><color>ff00ffff</color><width>3</width></LineStyle></Style>
<Style id="prio"><LineStyle><color>ff0000ff</color><width>5</width></LineStyle></Style>
<Style id="old"><LineStyle><color>ff888888</color><width>2</width></LineStyle></Style>
<Style id="corr"><LineStyle><color>ff00aaff</color><width>2</width></LineStyle><PolyStyle><color>2200aaff</color></PolyStyle></Style>
<Placemark><name>Blue rucksack</name><styleUrl>#obj</styleUrl><description>Recovered object, laser rangefinder position. Elevation 4663 m.</description><Point><coordinates>73.586792,39.482656,4663</coordinates></Point></Placemark>
<Placemark><name>Trekking pole</name><styleUrl>#obj</styleUrl><description>Recovered object, laser rangefinder position. Elevation 4529 m.</description><Point><coordinates>73.585463,39.483176,4529</coordinates></Point></Placemark>
<Placemark><name>Turquoise lid</name><styleUrl>#obj</styleUrl><description>Recovered object, laser rangefinder position. Elevation 4531 m.</description><Point><coordinates>73.585443,39.483144,4531</coordinates></Point></Placemark>
<Placemark><name>Fall line (DEM-routed, steepest descent)</name><styleUrl>#axis</styleUrl><description>Routed from the rucksack over Copernicus GLO-30. 2454 m long, 4685 m down to 4150 m.</description><LineString><tessellate>1</tessellate><coordinates>73.586806,39.482639 73.586528,39.482639 73.586250,39.482917 73.585972,39.483194 73.585694,39.483472 73.585417,39.483750 73.585417,39.484028 73.585417,39.484306 73.585417,39.484583 73.585417,39.484861 73.585417,39.485139 73.585417,39.485417 73.585417,39.485694 73.585417,39.485972 73.585417,39.486250 73.585417,39.486528 73.585694,39.486806 73.585694,39.487083 73.585694,39.487361 73.585694,39.487639 73.585972,39.487917 73.586250,39.488194 73.586250,39.488472 73.586250,39.488750 73.586250,39.489028 73.586250,39.489306 73.586528,39.489583 73.586528,39.489861 73.586806,39.490139 73.586806,39.490417 73.586806,39.490694 73.586806,39.490972 73.586806,39.491250 73.586806,39.491528 73.586806,39.491806 73.586806,39.492083 73.586806,39.492361 73.587083,39.492639 73.587361,39.492917 73.587639,39.493194 73.587917,39.493472 73.588194,39.493750 73.588472,39.494028 73.588750,39.494306 73.589028,39.494583 73.589306,39.494861 73.589583,39.495139 73.589861,39.495139 73.590139,39.495417 73.590417,39.495417 73.590694,39.495694 73.590972,39.495972 73.591250,39.495972 73.591528,39.496250 73.591806,39.496528 73.592083,39.496806 73.592361,39.497083 73.592361,39.497361 73.592361,39.497639 73.592361,39.497917 73.592361,39.498194 73.592361,39.498472 73.592361,39.498750 73.592361,39.499028 73.592361,39.499306 73.592361,39.499583 73.592361,39.499861 73.592361,39.500139 73.592083,39.500417 73.592083,39.500694 73.592083,39.500972 73.592083,39.501250 73.592361,39.501528 73.592361,39.501806</coordinates></LineString></Placemark>
<Placemark><name>PRIORITY: unsearched, below the lid</name><styleUrl>#prio</styleUrl><description>Nothing has been searched below 4529 m on this line. Heavier objects travel further than light gear, so this is the highest-value unsearched ground.</description><LineString><tessellate>1</tessellate><coordinates>73.585694,39.483472 73.585417,39.483750 73.585417,39.484028 73.585417,39.484306 73.585417,39.484583 73.585417,39.484861 73.585417,39.485139 73.585417,39.485417 73.585417,39.485694 73.585417,39.485972 73.585417,39.486250 73.585417,39.486528 73.585694,39.486806 73.585694,39.487083 73.585694,39.487361 73.585694,39.487639 73.585972,39.487917 73.586250,39.488194 73.586250,39.488472 73.586250,39.488750 73.586250,39.489028 73.586250,39.489306 73.586528,39.489583 73.586528,39.489861 73.586806,39.490139 73.586806,39.490417 73.586806,39.490694 73.586806,39.490972 73.586806,39.491250 73.586806,39.491528 73.586806,39.491806 73.586806,39.492083 73.586806,39.492361 73.587083,39.492639 73.587361,39.492917 73.587639,39.493194 73.587917,39.493472 73.588194,39.493750 73.588472,39.494028 73.588750,39.494306 73.589028,39.494583 73.589306,39.494861 73.589583,39.495139 73.589861,39.495139 73.590139,39.495417 73.590417,39.495417 73.590694,39.495694 73.590972,39.495972 73.591250,39.495972 73.591528,39.496250 73.591806,39.496528 73.592083,39.496806 73.592361,39.497083 73.592361,39.497361 73.592361,39.497639 73.592361,39.497917 73.592361,39.498194 73.592361,39.498472 73.592361,39.498750 73.592361,39.499028 73.592361,39.499306 73.592361,39.499583 73.592361,39.499861 73.592361,39.500139 73.592083,39.500417 73.592083,39.500694 73.592083,39.500972 73.592083,39.501250 73.592361,39.501528 73.592361,39.501806</coordinates></LineString></Placemark>
<Placemark><name>Search corridor 400 m wide (follows the routed line)</name><styleUrl>#corr</styleUrl><Polygon><outerBoundaryIs><LinearRing><tessellate>1</tessellate><coordinates>73.588070,39.484150 73.588048,39.484002 73.587871,39.484208 73.587814,39.484295 73.587708,39.484375 73.587588,39.484399 73.587702,39.484369 73.587745,39.484306 73.587745,39.484583 73.587745,39.484861 73.587745,39.485139 73.587745,39.485417 73.587745,39.485694 73.587745,39.485972 73.587702,39.485908 73.587702,39.486186 73.587980,39.486464 73.587980,39.486742 73.587980,39.487020 73.587866,39.486990 73.588144,39.487268 73.588421,39.487546 73.588536,39.488131 73.588578,39.488750 73.588536,39.488686 73.588536,39.488964 73.588699,39.488935 73.588699,39.489212 73.589091,39.489797 73.589091,39.490075 73.589134,39.490694 73.589134,39.490972 73.589134,39.491250 73.589134,39.491528 73.589134,39.491806 73.589091,39.491742 73.588977,39.491712 73.589097,39.491736 73.589203,39.491816 73.589481,39.492094 73.589759,39.492372 73.590036,39.492649 73.590314,39.492927 73.590592,39.493205 73.590870,39.493483 73.590927,39.493569 73.591205,39.493847 73.591126,39.493628 73.591403,39.493906 73.592038,39.494125 73.591959,39.494183 73.592594,39.494681 73.592871,39.494681 73.593149,39.494958 73.593648,39.495427 73.594098,39.495903 73.594533,39.496435 73.594647,39.497020 73.594689,39.497639 73.594689,39.497917 73.594689,39.498194 73.594689,39.498472 73.594689,39.498750 73.594689,39.499028 73.594689,39.499306 73.594689,39.499583 73.594647,39.500203 73.594647,39.500480 73.594369,39.500758 73.594369,39.501036 73.594369,39.500631 73.594369,39.500909 73.594616,39.501079 73.594533,39.501157 73.590189,39.502454 73.590106,39.501977 73.589797,39.501591 73.589797,39.501314 73.589797,39.500353 73.589797,39.500075 73.590075,39.499797 73.590075,39.499520 73.590033,39.499583 73.590033,39.499306 73.590033,39.499028 73.590033,39.498750 73.590033,39.498472 73.590033,39.498194 73.590033,39.497917 73.590033,39.497639 73.590075,39.497703 73.590189,39.497732 73.590069,39.497708 73.589963,39.497628 73.589906,39.497542 73.589629,39.497264 73.589351,39.497264 73.589430,39.497206 73.588795,39.496708 73.588874,39.496928 73.588597,39.496650 73.587962,39.496430 73.587684,39.496153 73.587186,39.495684 73.586908,39.495406 73.586630,39.495128 73.586352,39.494851 73.586075,39.494573 73.585797,39.494295 73.585519,39.494017 73.585069,39.493542 73.584634,39.493010 73.584520,39.492425 73.584477,39.491806 73.584477,39.491528 73.584477,39.491250 73.584477,39.490972 73.584478,39.490694 73.584520,39.490758 73.584520,39.490480 73.584356,39.490510 73.584356,39.490232 73.583964,39.489647 73.583964,39.489369 73.583922,39.488750 73.583964,39.488814 73.584079,39.488843 73.583801,39.488566 73.583523,39.488288 73.583409,39.487703 73.583409,39.487425 73.583409,39.487147 73.583131,39.486869 73.583131,39.486592 73.583089,39.485972 73.583089,39.485694 73.583089,39.485417 73.583089,39.485139 73.583089,39.484861 73.583089,39.484583 73.583089,39.484306 73.583131,39.483686 73.583245,39.483101 73.583681,39.482569 73.584131,39.482094 73.584629,39.481625 73.585008,39.481276 73.585541,39.481128 73.588070,39.484150</coordinates></LinearRing></outerBoundaryIs></Polygon></Placemark>
<Placemark><name>SUPERSEDED: old straight axis (bearing 297)</name><styleUrl>#old</styleUrl><description>Kept only so anyone holding the previous file can see what changed. Do not search on this.</description><LineString><tessellate>1</tessellate><coordinates>73.589909,39.481439 73.589649,39.481540 73.589389,39.481642 73.589129,39.481743 73.588870,39.481845 73.588610,39.481946 73.588350,39.482047 73.588091,39.482149 73.587831,39.482250 73.587571,39.482352 73.587311,39.482453 73.587052,39.482555 73.586792,39.482656 73.586532,39.482757 73.586273,39.482859 73.586013,39.482960 73.585753,39.483062 73.585493,39.483163 73.585234,39.483265 73.584974,39.483366 73.584714,39.483467 73.584455,39.483569 73.584195,39.483670 73.583935,39.483772 73.583675,39.483873 73.583416,39.483975 73.583156,39.484076 73.582896,39.484177 73.582637,39.484279 73.582377,39.484380 73.582117,39.484482 73.581857,39.484583 73.581598,39.484685 73.581338,39.484786 73.581078,39.484887 73.580818,39.484989 73.580559,39.485090 73.580299,39.485192 73.580039,39.485293 73.579780,39.485395 73.579520,39.485496 73.579260,39.485597 73.579000,39.485699 73.578741,39.485800 73.578481,39.485902</coordinates></LineString></Placemark>
</Document></kml>