<?xml version="1.0" encoding="UTF-8"?>
<kml xmlns="http://www.opengis.net/kml/2.2"><Document>
  <name>Неосмотренный участок линии падения склона</name>
  <description><![CDATA[2094 м, перепад 398 м, 69 точек. Ниже бирюзовой крышки
    (4530,8 м эллипс.) съёмки нет ни одной. Ближайший материал - DJI_20260811161324_0003_Z,
    и он не подходит ближе 108 м. Требуется облёт: 10 см/пкс или лучше, коридор 200 м,
    близко к надиру, без зависаний. Высоты в описаниях даны в обеих системах;
    разница 33,19 м.]]></description>
  <Style id="wp"><IconStyle><color>ff0000ff</color><scale>1.0</scale>
    <Icon><href>http://maps.google.com/mapfiles/kml/shapes/placemark_circle.png</href></Icon>
  </IconStyle></Style>
  <Style id="ln"><LineStyle><color>ff0000ff</color><width>4</width></LineStyle></Style>
  <Placemark><name>Ось коридора (неосмотрено)</name><styleUrl>#ln</styleUrl>
    <LineString><tessellate>1</tessellate><altitudeMode>clampToGround</altitudeMode>
      <coordinates>73.585417,39.483750,4548 73.585417,39.484028,4528 73.585417,39.484306,4510 73.585417,39.484583,4491 73.585417,39.484861,4478 73.585417,39.485139,4466 73.585417,39.485417,4454 73.585417,39.485694,4445 73.585417,39.485972,4438 73.585417,39.486250,4433 73.585417,39.486528,4429 73.585694,39.486806,4424 73.585694,39.487083,4420 73.585694,39.487361,4416 73.585694,39.487639,4411 73.585972,39.487917,4405 73.586250,39.488194,4396 73.586250,39.488472,4387 73.586250,39.488750,4380 73.586250,39.489028,4374 73.586250,39.489306,4370 73.586528,39.489583,4366 73.586528,39.489861,4363 73.586806,39.490139,4359 73.586806,39.490417,4355 73.586806,39.490694,4351 73.586806,39.490972,4345 73.586806,39.491250,4337 73.586806,39.491528,4329 73.586806,39.491806,4321 73.586806,39.492083,4314 73.586806,39.492361,4310 73.587083,39.492639,4308 73.587361,39.492917,4306 73.587639,39.493194,4305 73.587917,39.493472,4304 73.588194,39.493750,4304 73.588472,39.494028,4303 73.588750,39.494306,4302 73.589028,39.494583,4299 73.589306,39.494861,4296 73.589583,39.495139,4291 73.589861,39.495139,4286 73.590139,39.495417,4280 73.590417,39.495417,4274 73.590694,39.495694,4267 73.590972,39.495972,4259 73.591250,39.495972,4254 73.591528,39.496250,4246 73.591806,39.496528,4240 73.592083,39.496806,4235 73.592361,39.497083,4232 73.592361,39.497361,4230 73.592361,39.497639,4228 73.592361,39.497917,4226 73.592361,39.498194,4223 73.592361,39.498472,4218 73.592361,39.498750,4211 73.592361,39.499028,4204 73.592361,39.499306,4196 73.592361,39.499583,4185 73.592361,39.499861,4176 73.592361,39.500139,4170 73.592083,39.500417,4163 73.592083,39.500694,4159 73.592083,39.500972,4157 73.592083,39.501250,4154 73.592361,39.501528,4152 73.592361,39.501806,4150</coordinates></LineString></Placemark>
  <Folder><name>Точки (каждая восьмая)</name>
    <Placemark>
      <name>0</name>
      <description><![CDATA[Шаг 0 из 68<br/>
        39.483750 N, 73.585417 E<br/>
        4515 м эллипсоидальная<br/>
        4548 м ортометрическая]]></description>
      <styleUrl>#wp</styleUrl>
      <Point><altitudeMode>absolute</altitudeMode>
        <coordinates>73.585417,39.483750,4548</coordinates></Point>
    </Placemark>
    <Placemark>
      <name>8</name>
      <description><![CDATA[Шаг 8 из 68<br/>
        39.485972 N, 73.585417 E<br/>
        4404 м эллипсоидальная<br/>
        4438 м ортометрическая]]></description>
      <styleUrl>#wp</styleUrl>
      <Point><altitudeMode>absolute</altitudeMode>
        <coordinates>73.585417,39.485972,4438</coordinates></Point>
    </Placemark>
    <Placemark>
      <name>16</name>
      <description><![CDATA[Шаг 16 из 68<br/>
        39.488194 N, 73.586250 E<br/>
        4363 м эллипсоидальная<br/>
        4396 м ортометрическая]]></description>
      <styleUrl>#wp</styleUrl>
      <Point><altitudeMode>absolute</altitudeMode>
        <coordinates>73.586250,39.488194,4396</coordinates></Point>
    </Placemark>
    <Placemark>
      <name>24</name>
      <description><![CDATA[Шаг 24 из 68<br/>
        39.490417 N, 73.586806 E<br/>
        4322 м эллипсоидальная<br/>
        4355 м ортометрическая]]></description>
      <styleUrl>#wp</styleUrl>
      <Point><altitudeMode>absolute</altitudeMode>
        <coordinates>73.586806,39.490417,4355</coordinates></Point>
    </Placemark>
    <Placemark>
      <name>32</name>
      <description><![CDATA[Шаг 32 из 68<br/>
        39.492639 N, 73.587083 E<br/>
        4274 м эллипсоидальная<br/>
        4308 м ортометрическая]]></description>
      <styleUrl>#wp</styleUrl>
      <Point><altitudeMode>absolute</altitudeMode>
        <coordinates>73.587083,39.492639,4308</coordinates></Point>
    </Placemark>
    <Placemark>
      <name>40</name>
      <description><![CDATA[Шаг 40 из 68<br/>
        39.494861 N, 73.589306 E<br/>
        4262 м эллипсоидальная<br/>
        4296 м ортометрическая]]></description>
      <styleUrl>#wp</styleUrl>
      <Point><altitudeMode>absolute</altitudeMode>
        <coordinates>73.589306,39.494861,4296</coordinates></Point>
    </Placemark>
    <Placemark>
      <name>48</name>
      <description><![CDATA[Шаг 48 из 68<br/>
        39.496250 N, 73.591528 E<br/>
        4213 м эллипсоидальная<br/>
        4246 м ортометрическая]]></description>
      <styleUrl>#wp</styleUrl>
      <Point><altitudeMode>absolute</altitudeMode>
        <coordinates>73.591528,39.496250,4246</coordinates></Point>
    </Placemark>
    <Placemark>
      <name>56</name>
      <description><![CDATA[Шаг 56 из 68<br/>
        39.498472 N, 73.592361 E<br/>
        4185 м эллипсоидальная<br/>
        4218 м ортометрическая]]></description>
      <styleUrl>#wp</styleUrl>
      <Point><altitudeMode>absolute</altitudeMode>
        <coordinates>73.592361,39.498472,4218</coordinates></Point>
    </Placemark>
    <Placemark>
      <name>64</name>
      <description><![CDATA[Шаг 64 из 68<br/>
        39.500694 N, 73.592083 E<br/>
        4126 м эллипсоидальная<br/>
        4159 м ортометрическая]]></description>
      <styleUrl>#wp</styleUrl>
      <Point><altitudeMode>absolute</altitudeMode>
        <coordinates>73.592083,39.500694,4159</coordinates></Point>
    </Placemark>
    <Placemark>
      <name>68</name>
      <description><![CDATA[Шаг 68 из 68<br/>
        39.501806 N, 73.592361 E<br/>
        4117 м эллипсоидальная<br/>
        4150 м ортометрическая]]></description>
      <styleUrl>#wp</styleUrl>
      <Point><altitudeMode>absolute</altitudeMode>
        <coordinates>73.592361,39.501806,4150</coordinates></Point>
    </Placemark>
  </Folder>
</Document></kml>